NORAD_CAT_ID,OBJECT_NAME,OBJECT_TYPE,EPOCH,MEAN_MOTION,ECCENTRICITY,INCLINATION,RA_OF_ASC_NODE,ARG_OF_PERICENTER,MEAN_ANOMALY,BSTAR,MEAN_MOTION_DOT,MEAN_MOTION_DDOT,TLE_LINE0,TLE_LINE1,TLE_LINE2,SEMIMAJOR_AXIS,PERIOD,APOGEE,PERIGEE,DECAYED
53591.0,STARLINK-4674,PAYLOAD,2024-02-29 20:32:32,15.08844747,0.0001741,53.2179,321.0405,84.5861,275.533,0.0001945,2.809e-05,0.0,0 STARLINK-4674,1 53591U 22104D   24060.85593523  .00002809  00000-0  19450-3 0  9995,2 53591  53.2179 321.0405 0001741  84.5861 275.5330 15.08844747 83387,6917.866,95.437,540.935,538.526,0.0
53591.0,STARLINK-4674,PAYLOAD,2024-02-29 22:07:55,15.08843791,0.0001696,53.2176,320.7428,85.3584,274.7602,0.00016922,2.406e-05,0.0,0 STARLINK-4674,1 53591U 22104D   24060.92217527  .00002406  00000-0  16922-3 0  9994,2 53591  53.2176 320.7428 0001696  85.3584 274.7602 15.08843791 84433,6917.869,95.437,540.907,538.561,0.0
53591.0,STARLINK-4674,PAYLOAD,2024-02-29 23:43:18,15.0884568,0.0001585,53.2176,320.4442,93.7933,266.3241,0.00019489,2.815e-05,0.0,0 STARLINK-4674,1 53591U 22104D   24060.98841340  .00002815  00000-0  19489-3 0  9991,2 53591  53.2176 320.4442 0001585  93.7933 266.3241 15.08845680 84440,6917.863,95.437,540.825,538.632,0.0
53591.0,STARLINK-4674,PAYLOAD,2024-03-01 21:58:42,15.0884242,0.0001474,53.2176,316.281,100.0966,260.0192,0.00043407,6.627e-05,0.0,0 STARLINK-4674,1 53591U 22104D   24061.91577416  .00006627  00000-0  43407-3 0  9997,2 53591  53.2176 316.2810 0001474 100.0966 260.0192 15.08842420 84587,6917.873,95.437,540.758,538.718,0.0
53591.0,STARLINK-4674,PAYLOAD,2024-03-01 23:34:05,15.08850312,0.0001544,53.2177,315.9834,99.8187,260.298,0.00018697,2.69e-05,0.0,0 STARLINK-4674,1 53591U 22104D   24061.98200824  .00002690  00000-0  18697-3 0  9999,2 53591  53.2177 315.9834 0001544  99.8187 260.2980 15.08850312 83550,6917.849,95.437,540.782,538.646,0.0
53591.0,STARLINK-4674,PAYLOAD,2024-03-02 20:14:06,15.08843997,0.0001634,53.2174,312.1193,112.232,247.8845,7.905e-05,9.7e-06,0.0,0 STARLINK-4674,1 53591U 22104D   24062.84312996  .00000970  00000-0  79050-4 0  9999,2 53591  53.2174 312.1193 0001634 112.2320 247.8845 15.08843997 83689,6917.868,95.437,540.864,538.603,0.0
53591.0,STARLINK-4674,PAYLOAD,2024-03-02 21:49:29,15.08840388,0.0001567,53.2178,311.8215,98.9402,261.1767,1.6445e-05,-2.6e-07,0.0,0 STARLINK-4674,1 53591U 22104D   24062.90937155 -.00000026  00000-0  16445-4 0  9998,2 53591  53.2178 311.8215 0001567  98.9402 261.1767 15.08840388 84730,6917.879,95.438,540.828,538.66,0.0
53591.0,STARLINK-4674,PAYLOAD,2024-03-03 08:57:11,15.0884033,0.000139,53.2167,309.7389,87.1949,272.9202,1.6219e-05,-3e-07,0.0,0 STARLINK-4674,1 53591U 22104D   24063.37305158 -.00000030  00000-0  16219-4 0  9996,2 53591  53.2167 309.7389 0001390  87.1949 272.9202 15.08840330 84805,6917.879,95.438,540.706,538.783,0.0
53591.0,STARLINK-4674,PAYLOAD,2024-03-03 20:04:52,15.08855043,0.0001569,53.217,307.656,116.7724,243.3429,0.0001009,1.319e-05,0.0,0 STARLINK-4674,1 53591U 22104D   24063.83672100  .00001319  00000-0  10090-3 0  9991,2 53591  53.2170 307.6560 0001569 116.7724 243.3429 15.08855043 84872,6917.834,95.437,540.785,538.614,0.0
53591.0,STARLINK-4674,PAYLOAD,2024-03-04 02:26:25,15.08852868,0.0001306,53.2165,306.4663,99.3613,260.7527,0.00015347,2.156e-05,0.0,0 STARLINK-4674,1 53591U 22104D   24064.10168237  .00002156  00000-0  15347-3 0  9993,2 53591  53.2165 306.4663 0001306  99.3613 260.7527 15.08852868 83872,6917.841,95.437,540.61,538.803,0.0
53591.0,STARLINK-4674,PAYLOAD,2024-03-04 08:47:57,15.08851629,0.0001262,53.2168,305.2781,90.7117,269.402,0.00023575,3.467e-05,0.0,0 STARLINK-4674,1 53591U 22104D   24064.36664313  .00003467  00000-0  23575-3 0  9995,2 53591  53.2168 305.2781 0001262  90.7117 269.4020 15.08851629 84956,6917.845,95.437,540.583,538.837,0.0
53591.0,STARLINK-4674,PAYLOAD,2024-03-04 19:55:40,15.08846254,0.0001818,53.2169,303.1983,86.3488,273.7712,0.00010863,1.441e-05,0.0,0 STARLINK-4674,1 53591U 22104D   24064.83032597  .00001441  00000-0  10863-3 0  9996,2 53591  53.2169 303.1983 0001818  86.3488 273.7712 15.08846254 83983,6917.861,95.437,540.984,538.469,0.0
53591.0,STARLINK-4674,PAYLOAD,2024-03-04 23:06:26,15.08848046,0.0001207,53.2163,302.6074,96.9286,263.1843,6.3435e-05,7.22e-06,0.0,0 STARLINK-4674,1 53591U 22104D   24064.96280263  .00000722  00000-0  63435-4 0  9990,2 53591  53.2163 302.6074 0001207  96.9286 263.1843 15.08848046 85045,6917.856,95.437,540.556,538.886,0.0
53591.0,STARLINK-4674,PAYLOAD,2024-03-05 02:17:12,15.08853642,0.0001324,53.2163,302.0087,73.7752,286.3385,0.00021643,3.159e-05,0.0,0 STARLINK-4674,1 53591U 22104D   24065.09527993  .00003159  00000-0  21643-3 0  9990,2 53591  53.2163 302.0087 0001324  73.7752 286.3385 15.08853642 85062,6917.839,95.437,540.62,538.788,0.0
53591.0,STARLINK-4674,PAYLOAD,2024-03-05 19:46:27,15.08832041,0.0001496,53.2162,298.736,96.0444,264.0718,-7.2227e-05,-1.437e-05,0.0,0 STARLINK-4674,1 53591U 22104D   24065.82393212 -.00001437  00000-0 -72227-4 0  9990,2 53591  53.2162 298.7360 0001496  96.0444 264.0718 15.08832041 84132,6917.905,95.438,540.805,538.735,0.0
53591.0,STARLINK-4674,PAYLOAD,2024-03-05 22:57:14,15.08833487,0.000163,53.2181,298.1397,80.7625,279.3551,-0.00016267,-2.876e-05,0.0,0 STARLINK-4674,1 53591U 22104D   24065.95641375 -.00002876  00000-0 -16267-3 0  9999,2 53591  53.2181 298.1397 0001630  80.7625 279.3551 15.08833487 85194,6917.9,95.438,540.893,538.638,0.0
53591.0,STARLINK-4674,PAYLOAD,2024-03-06 22:48:01,15.08829138,0.0001255,53.2168,293.685,89.0781,271.0354,0.00027575,4.102e-05,0.0,0 STARLINK-4674,1 53591U 22104D   24066.95001980  .00004102  00000-0  27575-3 0  9998,2 53591  53.2168 293.6850 0001255  89.0781 271.0354 15.08829138 84301,6917.914,95.438,540.647,538.91,0.0
53591.0,STARLINK-4674,PAYLOAD,2024-03-07 08:20:20,15.08840676,0.0001285,53.2165,291.8986,92.4716,267.6423,1.1013e-05,-1.13e-06,0.0,0 STARLINK-4674,1 53591U 22104D   24067.34745435 -.00000113  00000-0  11013-4 0  9992,2 53591  53.2165 291.8986 0001285  92.4716 267.6423 15.08840676 85407,6917.878,95.438,540.632,538.854,0.0
53591.0,STARLINK-4674,PAYLOAD,2024-03-08 00:14:11,15.08846836,0.0001271,53.216,288.9236,94.0466,266.0671,0.00022531,3.3e-05,0.0,0 STARLINK-4674,1 53591U 22104D   24068.00985549  .00003300  00000-0  22531-3 0  9994,2 53591  53.2160 288.9236 0001271  94.0466 266.0671 15.08846836 84469,6917.859,95.437,540.604,538.845,0.0
53591.0,STARLINK-4674,PAYLOAD,2024-03-08 08:11:07,15.08836645,0.0001705,53.2171,287.4361,102.0601,258.0582,0.00015013,2.102e-05,0.0,0 STARLINK-4674,1 53591U 22104D   24068.34106150  .00002102  00000-0  15013-3 0  9990,2 53591  53.2171 287.4361 0001705 102.0601 258.0582 15.08836645 84512,6917.891,95.438,540.935,538.576,0.0
53591.0,STARLINK-4674,PAYLOAD,2024-03-08 20:54:12,15.08842328,0.0001267,53.2164,285.0603,88.414,271.6997,0.00011401,1.527e-05,0.0,0 STARLINK-4674,1 53591U 22104D   24068.87097886  .00001527  00000-0  11401-3 0  9990,2 53591  53.2164 285.0603 0001267  88.4140 271.6997 15.08842328 85635,6917.873,95.437,540.615,538.862,0.0
53591.0,STARLINK-4674,PAYLOAD,2024-03-09 00:04:58,15.08845771,0.0001423,53.216,284.4651,90.5772,269.5383,0.00016177,2.288e-05,0.0,0 STARLINK-4674,1 53591U 22104D   24069.00345707  .00002288  00000-0  16177-3 0  9994,2 53591  53.2160 284.4651 0001423  90.5772 269.5383 15.08845771 84613,6917.863,95.437,540.712,538.743,0.0
53591.0,STARLINK-4674,PAYLOAD,2024-03-10 14:14:14,15.0884024,0.0001406,53.2149,277.3276,89.5726,270.5427,5.4858e-05,5.85e-06,0.0,0 STARLINK-4674,1 53591U 22104D   24070.59321868  .00000585  00000-0  54858-4 0  9999,2 53591  53.2149 277.3276 0001406  89.5726 270.5427 15.08840240 85890,6917.88,95.438,540.717,538.772,0.0
53591.0,STARLINK-4674,PAYLOAD,2024-03-10 20:35:46,15.08847147,0.000117,53.2144,276.1377,97.1112,263.0013,-0.00013144,-2.38e-05,0.0,0 STARLINK-4674,1 53591U 22104D   24070.85817610 -.00002380  00000-0 -13144-3 0  9992,2 53591  53.2144 276.1377 0001170  97.1112 263.0013 15.08847147 84896,6917.859,95.437,540.533,538.914,0.0
53591.0,STARLINK-4674,PAYLOAD,2024-03-11 22:01:56,15.08839667,0.0001476,53.2155,271.3798,89.67,270.4461,4.6959e-05,4.59e-06,0.0,0 STARLINK-4674,1 53591U 22104D   24071.91802064  .00000459  00000-0  46959-4 0  9991,2 53591  53.2155 271.3798 0001476  89.6700 270.4461 15.08839667 85056,6917.881,95.438,540.767,538.725,0.0
53591.0,STARLINK-4674,PAYLOAD,2024-03-12 23:28:07,15.08842984,0.0001282,53.2158,266.6214,99.8651,260.2486,0.00013537,1.867e-05,0.0,0 STARLINK-4674,1 53591U 22104D   24072.97785912  .00001867  00000-0  13537-3 0  9999,2 53591  53.2158 266.6214 0001282  99.8651 260.2486 15.08842984 85210,6917.871,95.437,540.623,538.849,0.0
53591.0,STARLINK-4674,PAYLOAD,2024-03-13 05:49:39,15.08840867,0.0001426,53.2164,265.4278,80.874,279.2414,0.00010986,1.461e-05,0.0,0 STARLINK-4674,1 53591U 22104D   24073.24282230  .00001461  00000-0  10986-3 0  9990,2 53591  53.2164 265.4278 0001426  80.8740 279.2414 15.08840867 86291,6917.878,95.437,540.729,538.756,0.0
53591.0,STARLINK-4674,PAYLOAD,2024-03-13 21:43:30,15.08843991,0.0001238,53.2149,262.4562,87.7113,272.4021,7.3138e-05,8.76e-06,0.0,0 STARLINK-4674,1 53591U 22104D   24073.90521864  .00000876  00000-0  73138-4 0  9990,2 53591  53.2149 262.4562 0001238  87.7113 272.4021 15.08843991 86399,6917.868,95.437,540.59,538.877,0.0
53591.0,STARLINK-4674,PAYLOAD,2024-03-14 05:40:26,15.08840805,9e-05,53.2208,260.9683,87.4629,272.6466,3.9943e-05,3.48e-06,0.0,0 STARLINK-4674,1 53591U 22104D   24074.23642168  .00000348  00000-0  39943-4 0  9998,2 53591  53.2208 260.9683 0000900  87.4629 272.6466 15.08840805 86448,6917.878,95.438,540.366,539.12,0.0
53591.0,STARLINK-4674,PAYLOAD,2024-03-14 12:01:59,15.08829325,0.0001512,53.2133,259.7814,83.9242,276.1922,0.00016492,2.337e-05,0.0,0 STARLINK-4674,1 53591U 22104D   24074.50138405  .00002337  00000-0  16492-3 0  9995,2 53591  53.2133 259.7814 0001512  83.9242 276.1922 15.08829325 85448,6917.913,95.438,540.824,538.732,0.0
